{
    "links": {
        "self": "http://www.neowsapp.com/rest/v1/neo/3699509?api_key=iIulBulltgU6a56xZRHN4H3l9WmuAYTsLGpBGhQ2"
    },
    "id": "3699509",
    "neo_reference_id": "3699509",
    "name": "(2014 WJ365)",
    "designation": "2014 WJ365",
    "nasa_jpl_url": "http://ssd.jpl.nasa.gov/sbdb.cgi?sstr=3699509",
    "absolute_magnitude_h": 23.3,
    "estimated_diameter": {
        "kilometers": {
            "estimated_diameter_min": 0.058150704,
            "estimated_diameter_max": 0.130028927
        },
        "meters": {
            "estimated_diameter_min": 58.1507039646,
            "estimated_diameter_max": 130.0289270043
        },
        "miles": {
            "estimated_diameter_min": 0.0361331611,
            "estimated_diameter_max": 0.0807962044
        },
        "feet": {
            "estimated_diameter_min": 190.7831555951,
            "estimated_diameter_max": 426.6041048727
        }
    },
    "is_potentially_hazardous_asteroid": false,
    "close_approach_data": [
        {
            "close_approach_date": "1905-01-18",
            "close_approach_date_full": "1905-Jan-18 05:58",
            "epoch_date_close_approach": -2049732120000,
            "relative_velocity": {
                "kilometers_per_second": "10.8815202917",
                "kilometers_per_hour": "39173.4730499558",
                "miles_per_hour": "24340.8727404017"
            },
            "miss_distance": {
                "astronomical": "0.2427299467",
                "lunar": "94.4219492663",
                "kilometers": "36311883.011533529",
                "miles": "22563157.8358355402"
            },
            "orbiting_body": "Earth"
        },
        {
            "close_approach_date": "2014-12-13",
            "close_approach_date_full": "2014-Dec-13 20:29",
            "epoch_date_close_approach": 1418502540000,
            "relative_velocity": {
                "kilometers_per_second": "7.2232032106",
                "kilometers_per_hour": "26003.5315581656",
                "miles_per_hour": "16157.5832617946"
            },
            "miss_distance": {
                "astronomical": "0.1216159295",
                "lunar": "47.3085965755",
                "kilometers": "18193484.011270165",
                "miles": "11304906.749111677"
            },
            "orbiting_body": "Earth"
        }
    ],
    "orbital_data": {
        "orbit_id": "10",
        "orbit_determination_date": "2017-04-06 08:37:06",
        "first_observation_date": "2014-11-26",
        "last_observation_date": "2015-01-16",
        "data_arc_in_days": 51,
        "observations_used": 27,
        "orbit_uncertainty": "6",
        "minimum_orbit_intersection": ".104722",
        "jupiter_tisserand_invariant": "3.359",
        "epoch_osculation": "2459000.5",
        "eccentricity": ".5350473958222906",
        "semi_major_axis": "2.329807036364913",
        "inclination": "5.196355633999883",
        "ascending_node_longitude": "73.89573475371148",
        "orbital_period": "1298.9078925734",
        "perihelion_distance": "1.083249848789418",
        "perihelion_argument": "21.62168017689276",
        "aphelion_distance": "3.576364223940408",
        "perihelion_time": "2459607.652090181101",
        "mean_anomaly": "191.7242094571035",
        "mean_motion": ".2771559107911548",
        "equinox": "J2000",
        "orbit_class": {
            "orbit_class_type": "AMO",
            "orbit_class_description": "Near-Earth asteroid orbits similar to that of 1221 Amor",
            "orbit_class_range": "1.017 AU < q (perihelion) < 1.3 AU"
        }
    },
    "is_sentry_object": false
}